[{"OBJECT_NAME":"ION SCV-004","OBJECT_ID":"2022-002K","EPOCH":"2026-03-09T16:32:03.244416","MEAN_MOTION":15.29369331,"ECCENTRICITY":0.00072157,"INCLINATION":97.2961,"RA_OF_ASC_NODE":128.2294,"ARG_OF_PERICENTER":1.6783,"MEAN_ANOMALY":358.448,"EPHEMERIS_TYPE":0,"CLASSIFICATION_TYPE":"U","NORAD_CAT_ID":50993,"ELEMENT_SET_NO":999,"REV_AT_EPOCH":23008,"BSTAR":0.00023198467,"MEAN_MOTION_DOT":6.538e-5,"MEAN_MOTION_DDOT":0},{"OBJECT_NAME":"STARLINK-32182","OBJECT_ID":"2024-133U","EPOCH":"2026-03-09T01:24:00.721152","MEAN_MOTION":15.30193796,"ECCENTRICITY":0.000108,"INCLINATION":53.16,"RA_OF_ASC_NODE":299.9979,"ARG_OF_PERICENTER":85.6382,"MEAN_ANOMALY":274.4742,"EPHEMERIS_TYPE":0,"CLASSIFICATION_TYPE":"U","NORAD_CAT_ID":60319,"ELEMENT_SET_NO":999,"REV_AT_EPOCH":9154,"BSTAR":2.0727103e-5,"MEAN_MOTION_DOT":2.55e-6,"MEAN_MOTION_DDOT":0}]
